{
  "type": "FeatureCollection",
  "features": [
    {
      "type": "Feature",
      "properties": {
        "norad_id": 26766,
        "name": "INTELSAT 10 (IS-10)",
        "group": "intelsat",
        "lat": -8.560948935350844,
        "lon": -34.87451600208537,
        "alt_km": 36102.362359021536,
        "timestamp": "2025-12-03T04:52:29.308782+00:00",
        "meta_object_name": "INTELSAT 10 (IS-10)",
        "meta_object_id": "2001-019A",
        "meta_epoch": "2025-12-02T11:35:38.856768",
        "meta_mean_motion": 0.99077787,
        "meta_eccentricity": 0.00076986,
        "meta_inclination": 8.6036,
        "meta_ra_of_asc_node": 61.2568,
        "meta_arg_of_pericenter": 218.3784,
        "meta_mean_anomaly": 148.6829,
        "meta_ephemeris_type": 0,
        "meta_classification_type": "U",
        "meta_norad_cat_id": 26766,
        "meta_element_set_no": 999,
        "meta_rev_at_epoch": 4363,
        "meta_bstar": 0,
        "meta_mean_motion_dot": -1.25e-06,
        "meta_mean_motion_ddot": 0,
        "tle_line1": "1 26766U 01019A   25336.48308862 -.00000125  00000+0  00000+0 0  9993",
        "tle_line2": "2 26766   8.6036  61.2568 0007698 218.3784 148.6829  0.99077787 43631"
      },
      "geometry": {
        "type": "Point",
        "coordinates": [
          -34.87451600208537,
          -8.560948935350844
        ]
      }
    },
    {
      "type": "Feature",
      "properties": {
        "norad_id": 26900,
        "name": "INTELSAT 902 (IS-902)",
        "group": "intelsat",
        "lat": 2.038710975527204,
        "lon": 95.15540495833213,
        "alt_km": 35802.824538451765,
        "timestamp": "2025-12-03T04:52:29.308806+00:00",
        "meta_object_name": "INTELSAT 902 (IS-902)",
        "meta_object_id": "2001-039A",
        "meta_epoch": "2025-12-01T16:59:59.311968",
        "meta_mean_motion": 1.00270327,
        "meta_eccentricity": 0.00043097,
        "meta_inclination": 5.6187,
        "meta_ra_of_asc_node": 74.2002,
        "meta_arg_of_pericenter": 175.119,
        "meta_mean_anomaly": 26.3816,
        "meta_ephemeris_type": 0,
        "meta_classification_type": "U",
        "meta_norad_cat_id": 26900,
        "meta_element_set_no": 999,
        "meta_rev_at_epoch": 8871,
        "meta_bstar": 0,
        "meta_mean_motion_dot": -2.63e-06,
        "meta_mean_motion_ddot": 0,
        "tle_line1": "1 26900U 01039A   25335.70832537 -.00000263  00000+0  00000+0 0  9993",
        "tle_line2": "2 26900   5.6187  74.2002 0004309 175.1190  26.3816  1.00270327 88713"
      },
      "geometry": {
        "type": "Point",
        "coordinates": [
          95.15540495833213,
          2.038710975527204
        ]
      }
    },
    {
      "type": "Feature",
      "properties": {
        "norad_id": 27380,
        "name": "INTELSAT 904 (IS-904)",
        "group": "intelsat",
        "lat": 4.341715368900653,
        "lon": 113.71793109217958,
        "alt_km": 35791.9460350217,
        "timestamp": "2025-12-03T04:52:29.308822+00:00",
        "meta_object_name": "INTELSAT 904 (IS-904)",
        "meta_object_id": "2002-007A",
        "meta_epoch": "2025-12-02T03:21:43.155648",
        "meta_mean_motion": 1.0026967,
        "meta_eccentricity": 0.0001502,
        "meta_inclination": 6.4264,
        "meta_ra_of_asc_node": 71.5525,
        "meta_arg_of_pericenter": 197.1555,
        "meta_mean_anomaly": 181.4839,
        "meta_ephemeris_type": 0,
        "meta_classification_type": "U",
        "meta_norad_cat_id": 27380,
        "meta_element_set_no": 999,
        "meta_rev_at_epoch": 4979,
        "meta_bstar": 0,
        "meta_mean_motion_dot": -2.07e-06,
        "meta_mean_motion_ddot": 0,
        "tle_line1": "1 27380U 02007A   25336.14008282 -.00000207  00000+0  00000+0 0  9991",
        "tle_line2": "2 27380   6.4264  71.5525 0001502 197.1555 181.4839  1.00269670 49794"
      },
      "geometry": {
        "type": "Point",
        "coordinates": [
          113.71793109217958,
          4.341715368900653
        ]
      }
    },
    {
      "type": "Feature",
      "properties": {
        "norad_id": 27426,
        "name": "DIRECTV 5 (TEMPO 1)",
        "group": "intelsat",
        "lat": -2.9278452619005093,
        "lon": 35.38897389000337,
        "alt_km": 35796.70522604669,
        "timestamp": "2025-12-03T04:52:29.308835+00:00",
        "meta_object_name": "DIRECTV 5 (TEMPO 1)",
        "meta_object_id": "2002-023A",
        "meta_epoch": "2025-12-02T08:35:38.815296",
        "meta_mean_motion": 1.00271138,
        "meta_eccentricity": 0.00036989,
        "meta_inclination": 4.3735,
        "meta_ra_of_asc_node": 77.7745,
        "meta_arg_of_pericenter": 187.6548,
        "meta_mean_anomaly": 184.8233,
        "meta_ephemeris_type": 0,
        "meta_classification_type": "U",
        "meta_norad_cat_id": 27426,
        "meta_element_set_no": 999,
        "meta_rev_at_epoch": 8615,
        "meta_bstar": 0,
        "meta_mean_motion_dot": -3.7e-07,
        "meta_mean_motion_ddot": 0,
        "tle_line1": "1 27426U 02023A   25336.35808814 -.00000037  00000+0  00000+0 0  9993",
        "tle_line2": "2 27426   4.3735  77.7745 0003698 187.6548 184.8233  1.00271138 86159"
      },
      "geometry": {
        "type": "Point",
        "coordinates": [
          35.38897389000337,
          -2.9278452619005093
        ]
      }
    },
    {
      "type": "Feature",
      "properties": {
        "norad_id": 27438,
        "name": "INTELSAT 905 (IS-905)",
        "group": "intelsat",
        "lat": -5.6041929327311095,
        "lon": 8.381115630034694,
        "alt_km": 35790.657743389354,
        "timestamp": "2025-12-03T04:52:29.308847+00:00",
        "meta_object_name": "INTELSAT 905 (IS-905)",
        "meta_object_id": "2002-027A",
        "meta_epoch": "2025-12-02T09:56:38.679648",
        "meta_mean_motion": 1.00272936,
        "meta_eccentricity": 0.00030691,
        "meta_inclination": 6.2577,
        "meta_ra_of_asc_node": 72.1733,
        "meta_arg_of_pericenter": 187.1236,
        "meta_mean_anomaly": 184.1903,
        "meta_ephemeris_type": 0,
        "meta_classification_type": "U",
        "meta_norad_cat_id": 27438,
        "meta_element_set_no": 999,
        "meta_rev_at_epoch": 4939,
        "meta_bstar": 0,
        "meta_mean_motion_dot": 1.12e-06,
        "meta_mean_motion_ddot": 0,
        "tle_line1": "1 27438U 02027A   25336.41433657  .00000112  00000+0  00000+0 0  9999",
        "tle_line2": "2 27438   6.2577  72.1733 0003069 187.1236 184.1903  1.00272936 49393"
      },
      "geometry": {
        "type": "Point",
        "coordinates": [
          8.381115630034694,
          -5.6041929327311095
        ]
      }
    },
    {
      "type": "Feature",
      "properties": {
        "norad_id": 27445,
        "name": "GALAXY 3C (G-3C)",
        "group": "intelsat",
        "lat": -1.5962886472480171,
        "lon": 50.56463943331974,
        "alt_km": 35790.031337549364,
        "timestamp": "2025-12-03T04:52:29.308859+00:00",
        "meta_object_name": "GALAXY 3C (G-3C)",
        "meta_object_id": "2002-030A",
        "meta_epoch": "2025-12-02T13:20:05.112672",
        "meta_mean_motion": 1.00270375,
        "meta_eccentricity": 0.00012902,
        "meta_inclination": 3.2369,
        "meta_ra_of_asc_node": 80.6086,
        "meta_arg_of_pericenter": 97.4399,
        "meta_mean_anomaly": 358.7751,
        "meta_ephemeris_type": 0,
        "meta_classification_type": "U",
        "meta_norad_cat_id": 27445,
        "meta_element_set_no": 999,
        "meta_rev_at_epoch": 4452,
        "meta_bstar": 0,
        "meta_mean_motion_dot": -1.33e-06,
        "meta_mean_motion_ddot": 0,
        "tle_line1": "1 27445U 02030A   25336.55561473 -.00000133  00000+0  00000+0 0  9998",
        "tle_line2": "2 27445   3.2369  80.6086 0001290  97.4399 358.7751  1.00270375 44524"
      },
      "geometry": {
        "type": "Point",
        "coordinates": [
          50.56463943331974,
          -1.5962886472480171
        ]
      }
    },
    {
      "type": "Feature",
      "properties": {
        "norad_id": 27513,
        "name": "INTELSAT 906 (IS-906)",
        "group": "intelsat",
        "lat": 3.7820069147646693,
        "lon": -150.3990497432227,
        "alt_km": 35771.091723260666,
        "timestamp": "2025-12-03T04:52:29.308885+00:00",
        "meta_object_name": "INTELSAT 906 (IS-906)",
        "meta_object_id": "2002-041A",
        "meta_epoch": "2025-12-02T20:15:02.332800",
        "meta_mean_motion": 1.00273061,
        "meta_eccentricity": 0.0006113,
        "meta_inclination": 5.304,
        "meta_ra_of_asc_node": 75.3487,
        "meta_arg_of_pericenter": 191.2418,
        "meta_mean_anomaly": 173.2452,
        "meta_ephemeris_type": 0,
        "meta_classification_type": "U",
        "meta_norad_cat_id": 27513,
        "meta_element_set_no": 999,
        "meta_rev_at_epoch": 8506,
        "meta_bstar": 0,
        "meta_mean_motion_dot": 3e-07,
        "meta_mean_motion_ddot": 0,
        "tle_line1": "1 27513U 02041A   25336.84377700  .00000030  00000+0  00000+0 0  9991",
        "tle_line2": "2 27513   5.3040  75.3487 0006113 191.2418 173.2452  1.00273061 85066"
      },
      "geometry": {
        "type": "Point",
        "coordinates": [
          -150.3990497432227,
          3.7820069147646693
        ]
      }
    }
  ]
}